OPTICUBE 04             
1 41851U 16067D   24327.45794545  .00005878  00000+0  41808-3 0  9991
2 41851  98.0851 139.4110 0016256 244.2122 115.7426 15.04972220439024
AEROCUBE 8D             
1 41852U 16067E   24327.02475326  .00013810  00000+0  79890-3 0  9995
2 41852  98.1120 145.4121 0003891 306.5190  53.5680 15.12384309439218
AEROCUBE 8C             
1 41853U 16067F   24327.43737554  .00015297  00000+0  88318-3 0  9991
2 41853  98.0950 144.0514 0006310 221.2216 138.8537 15.12418330439266
PROMETHEUS 2-1          
1 41854U 16067G   24327.05371804  .00039685  00000+0  14424-2 0  9995
2 41854  98.0951 154.1977 0009093 235.5956 124.4423 15.28126121439742
PROMETHEUS 2-3          
1 41855U 16067H   24327.05619706  .00040119  00000+0  14623-2 0  9997
2 41855  98.0893 153.5356 0007759 248.3835 111.6576 15.28040497439745
CORVUS BC2              
1 42846U 17042X   24327.61240968  .00006728  00000+0  54107-3 0  9994
2 42846  97.3711 144.1918 0009448 244.2266 115.7984 15.00265558401178
CORVUS BC1              
1 42847U 17042Y   24327.02392704  .00007386  00000+0  59151-3 0  9991
2 42847  97.3690 144.0470 0008830 227.5102 132.5377 15.00398402401105
MIRATA                  
1 43015U 17073C   24327.54626640  .00046093  00000+0  15621-2 0  9990
2 43015  97.5675 211.5742 0138452  74.7768 286.8728 15.21629097380282
MAKERSAT 0              
1 43016U 17073D   24325.16296854  .00018228  00000+0  89190-3 0  9999
2 43016  97.5450 200.2644 0174206 112.6547 249.3206 15.05821203379316
SIRION PATHFINDER-2     
1 43759U 18099B   24327.14558433  .00009856  00000+0  67540-3 0  9998
2 43759  97.5093  19.0051 0012004 107.1138 253.1405 15.06189744326250
CORVUS BC4              
1 43767U 18099K   24327.60076884  .00008362  00000+0  59088-3 0  9992
2 43767  97.4920  16.1250 0010430 155.3594 204.8133 15.05102081326190
MOVE-II                 
1 43780U 18099Y   24327.62200190  .00052228  00000+0  17525-2 0  9997
2 43780  97.4984  30.3614 0005221 140.0600 220.1025 15.30688816327025
SPACEBEE-7              
1 43816U 18099BL  24327.13861037  .00034494  00000+0  15510-2 0  9993
2 43816  97.5274  29.6474 0008844  99.8083 260.4151 15.21004791326337
SPACEBEE-6              
1 43818U 18099BN  24327.15762815  .00211717  00000+0  30423-2 0  9996
2 43818  97.5149  39.4280 0001736  75.5953 284.5494 15.55349591327137
SHIELDS 1               
1 43850U 18104B   24327.07455528  .00029360  00000+0  59152-3 0  9992
2 43850  85.0212 175.3629 0008192 179.0623 181.0649 15.46387166330485
SONATE                  
1 44400U 19038Q   24327.24973983  .00056751  00000+0  10858-2 0  9993
2 44400  97.7140 329.8299 0009161 257.3676 102.6549 15.47841031298401
LUCKY-7                 
1 44406U 19038W   24326.93022858  .00346641  00000+0  15274-2 0  9997
2 44406  97.6876 337.6824 0005112 186.6010 173.5192 15.83619199298916
DUCHIFAT-3              
1 44854U 19089C   24326.70565701  .00031795  00000+0  11768-2 0  9999
2 44854  36.9504 166.2918 0011983 338.7980  21.2273 15.26755755272261
M2 PATHFINDER           
1 45727U 20037E   24327.00952333  .00006198  00000+0  50917-3 0  9998
2 45727  97.7794 142.9448 0011554 316.3781  43.6528 14.99488034239571
NETSAT-4                
1 46504U 20068U   24327.35439629  .00021873  00000+0  97186-3 0  9998
2 46504  97.8255 289.5723 0009132 157.5120 202.6517 15.21515088228167
NETSAT-3                
1 46505U 20068V   24327.33591620  .00019532  00000+0  88643-3 0  9994
2 46505  97.8237 288.8623 0008029 166.9999 193.1443 15.20820245228144
NETSAT-1                
1 46506U 20068W   24327.34691371  .00014674  00000+0  72520-3 0  9999
2 46506  97.8263 287.8554 0006683 178.1473 181.9785 15.17940530228074
NETSAT-2                
1 46507U 20068X   24326.32420282  .00017520  00000+0  78375-3 0  9995
2 46507  97.8237 288.0876 0005502 182.2165 177.9047 15.21354180227956
WILDTRACKCUBE-SIMBA     
1 47941U 21022K   24327.61051174  .00032096  00000+0  10822-2 0  9999
2 47941  97.4402 223.6525 0011125 317.8633  42.1752 15.30601238202610
GRBALPHA                
1 47959U 21022AD  24327.58199166  .00056440  00000+0  13862-2 0  9994
2 47959  97.4397 227.0134 0007579 309.2402  50.8171 15.40451515201659
BEESAT-8                
1 48085U 21022AP  24325.26973942  .00134680  00000+0  19264-2 0  9995
2 48085  97.4699 230.8164 0002520 338.4879  21.6269 15.55746708201913
LEDSAT                  
1 49069U 21073D   24327.18514159  .00044436  00000+0  12500-2 0  9993
2 49069  97.4181  38.1814 0015814  83.2650 277.0393 15.36229323180600
ROBUSTA-1F (MTCUBE 2)   
1 53109U 22080E   24325.50888608 -.00000003  00000+0  00000+0 0  9991
2 53109  70.1141 137.7690 0008366  54.9244 305.2199  6.42584295 55204
SITRO-AIS 5 (KATYS)     
1 57176U 23091L   24327.59792002  .00014515  00000+0  80974-3 0  9999
2 57176  97.5911  18.7399 0014846 301.5644  58.4136 15.13575049 77419
SITRO-AIS 6 (CHIRKIN)   
1 57192U 23091AC  24327.57859622  .00014879  00000+0  82955-3 0  9991
2 57192  97.5904  18.7512 0014822 301.0620  58.9156 15.13590114 77416
SITRO-AIS 8 (ANOKHIN)   
1 57193U 23091AD  24327.56207578  .00016590  00000+0  90577-3 0  9999
2 57193  97.5906  18.9154 0014471 302.0184  57.9641 15.14318695 77421
SITRO-AIS 7 (FARTUSHNIY)
1 57194U 23091AE  24327.59017805  .00013957  00000+0  78062-3 0  9994
2 57194  97.5906  18.7272 0014622 301.9945  57.9864 15.13495230 77418
SITRO-AIS 10 (BURDAEV)  
1 57199U 23091AK  24327.58531665  .00018063  00000+0  92402-3 0  9990
2 57199  97.5918  20.3617 0009853 287.9999  72.0159 15.16654506 77512
SITRO-AIS 9 (SHCHUKIN)  
1 57201U 23091AM  24327.58700808  .00017720  00000+0  90823-3 0  9995
2 57201  97.5914  20.3264 0009823 288.0202  71.9960 15.16589950 77514
SITRO-AIS 12 (SMIRENNIY)
1 57204U 23091AQ  24327.59511140  .00017753  00000+0  90477-3 0  9999
2 57204  97.5924  20.5311 0009666 281.3466  78.6681 15.16790637 77527
SITRO-AIS 11 (SHEFFER)  
1 57208U 23091AU  24327.56917813  .00018058  00000+0  91656-3 0  9996
2 57208  97.5922  20.5503 0009590 281.8443  78.1715 15.16932339 77528
VERONIKA                
1 58261U 23174F   24327.57161244  .00048584  00000+0  14546-2 0  9997
2 58261  97.4429  41.9876 0009361  44.8873 315.3126 15.34329161 57870
ROBUSTA-1E (ENSO)       
1 58470U 23185J   24327.57615997  .00037092  00000+0  11180-2 0  9993
2 58470  97.4055  33.4917 0010833  79.4901 280.7562 15.34165629 54324
SITRO-AIS 29            
1 59052U 24039B   24327.58088929  .00067853  00000+0  14744-2 0  9996
2 59052  97.4080 289.9497 0014550  29.4363 330.7701 15.43997611 40888
SITRO-AIS 30            
1 59053U 24039C   24327.60109843  .00062917  00000+0  13884-2 0  9999
2 59053  97.4076 289.9171 0014798  29.7707 330.4379 15.43556953 40879
SITRO-AIS 31            
1 59054U 24039D   24327.57141100  .00066917  00000+0  14578-2 0  9993
2 59054  97.4079 289.9572 0014635  30.0127 330.1956 15.43924039 40893
SITRO-AIS 33            
1 59055U 24039E   24327.61577554  .00064740  00000+0  14052-2 0  9994
2 59055  97.4080 290.0623 0014380  31.0049 329.2045 15.44046318 40891
SITRO-AIS 35            
1 59056U 24039F   24327.61021067  .00065643  00000+0  14213-2 0  9990
2 59056  97.4079 290.0647 0014231  31.6298 328.5802 15.44117614 40894
SITRO-AIS 32            
1 59057U 24039G   24327.57069091  .00065274  00000+0  14300-2 0  9992
2 59057  97.4084 289.9713 0014467  31.6079 328.6035 15.43767660 40889
SITRO-AIS 34            
1 59058U 24039H   24327.61515747  .00064902  00000+0  14081-2 0  9995
2 59058  97.4080 290.0651 0014262  31.0453 329.1635 15.44060739 40890
SITRO-AIS 36            
1 59059U 24039J   24327.59617612  .00066430  00000+0  14351-2 0  9995
2 59059  97.4078 290.0846 0014215  31.5912 328.6186 15.44181406 40897
SITRO-AIS 49            
1 59060U 24039K   24327.60988380  .00064941  00000+0  14163-2 0  9998
2 59060  97.4083 290.0692 0014155  31.0311 329.1771 15.43907514 40896
SITRO-AIS 50            
1 59061U 24039L   24327.57015207  .00067196  00000+0  14368-2 0  9996
2 59061  97.4079 290.1169 0014017  31.3512 328.8569 15.44485345 40890
SITRO-AIS 51            
1 59062U 24039M   24327.56877016  .00068824  00000+0  14686-2 0  9992
2 59062  97.4077 290.1170 0013978  31.9705 328.2389 15.44539533 40899
SITRO-AIS 52            
1 59063U 24039N   24327.61610606  .00066561  00000+0  14166-2 0  9998
2 59063  97.4080 290.2107 0013850  31.7238 328.4842 15.44628383 40903
SITRO-AIS 25            
1 59066U 24039R   24327.64024890  .00006542  00000+0  58684-3 0  9995
2 59066  95.3877 204.8014 0164104 156.0740 204.8221 14.86100277 39619
SITRO-AIS 26            
1 59067U 24039S   24327.57998438  .00006211  00000+0  55898-3 0  9993
2 59067  95.3876 204.7486 0164251 156.3778 204.5098 14.85973594 39605
SITRO-AIS 27            
1 59068U 24039T   24327.61564719  .00007579  00000+0  67761-3 0  9990
2 59068  95.3878 204.8295 0163703 155.8858 205.0141 14.86243988 39615
SITRO-AIS 28            
1 59071U 24039U   24327.60820860  .00007509  00000+0  67084-3 0  9996
2 59071  95.3878 204.8390 0163524 155.8737 205.0258 14.86289473 39610
GRBBETA                 
1 60237U 24128C   24327.36943870  .00007317  00000+0  60546-3 0  9994
2 60237  61.9944  52.5130 0027758   5.6165 354.5230 14.99408392 20295
OOV-CUBE (TUBSAT-30)    
1 60240U 24128F   24327.51451342  .00005106  00000+0  44262-3 0  9994
2 60240  61.9985  52.7055 0025799   0.9353 359.1780 14.98112575 20310
ROBUSTA-3A (MEDITERRAN*)
1 60243U 24128J   24327.35850543  .00011894  00000+0  97106-3 0  9991
2 60243  61.9916  52.9566 0026102 353.9274   6.1495 14.99525972 20297
